#aV2012  3  5  0  0  0.00000000     288 DD+AD WGS84 FIT  NGA
## 1678  86400.00000000   300.00000000 55991 0.0000000000000
+   32     1  2  3  4  5  6  7  8  9 10 11 12 13 14 15 16 17
+         18 19 20 21 22 23 24 25 26 27 28 29 30 31 32  0  0
+          0  0  0  0  0  0  0  0  0  0  0  0  0  0  0  0  0
+          0  0  0  0  0  0  0  0  0  0  0  0  0  0  0  0  0
+          0  0  0  0  0  0  0  0  0  0  0  0  0  0  0  0  0
++         2  2  2  2  2  2  2  2  2  2  2  2  2  2  2  2  2
++         2  2  2  2  2  2  2  2  2  2  2  2  2  2  2  0  0
++         0  0  0  0  0  0  0  0  0  0  0  0  0  0  0  0  0
++         0  0  0  0  0  0  0  0  0  0  0  0  0  0  0  0  0
++         0  0  0  0  0  0  0  0  0  0  0  0  0  0  0  0  0
%c cc cc ccc ccc cccc cccc cccc cccc ccccc ccccc ccccc ccccc
%c cc cc ccc ccc cccc cccc cccc cccc ccccc ccccc ccccc ccccc
%f  0.0000000  0.000000000  0.00000000000  0.000000000000000
%f  0.0000000  0.000000000  0.00000000000  0.000000000000000
%i    0    0    0    0      0      0      0      0         0
%i    0    0    0    0      0      0      0      0         0
/*      NGA, ST. LOUIS,MO.                                  
/*   EPHEMERIS COMPUTED FROM  1 DAYS OF DATA
/*   EPOCHA SMOOTHER  
/* CCCCCCCCCCCCCCCCCCCCCCCCCCCCCCCCCCCCCCCCCCCCCCCCCCCCCCCCC
*  2012  3  5  7 25  0.00000000                                                 
P  1  13895.188595  -8055.373699  21137.391761    226.124156                    
V  1   3982.528364  26586.546416   7528.458234      0.080741                    
P  2 -13426.372180 -17591.117047 -14939.851369    381.563968                    
V  2   -371.364666 -19137.450280  22203.426732      0.015331                    
P  3  23831.863120  10950.230555  -5519.504518     18.143220                    
V  3  -7077.283494   1485.087823 -29851.529633      0.051322                    
P  4  -7884.269230 -24325.895494  -6763.567590    113.406640                    
V  4   2570.228222  -8743.743576  29843.930383      0.114582                    
P  5 -17315.456808  -4562.606254 -19679.380258   -290.186246                    
V  5  19211.142907 -15934.797149 -13102.543640     -0.043412                    
P  6  21323.496232  13931.338896  -7892.445382     31.664742                    
V  6 -10601.864294   -564.410928 -28868.760262      0.004862                    
P  7   7485.609462 -20995.695343 -14231.189108     61.961040                    
V  7   3832.796798  17873.440982 -24553.292621      0.029270                    
P  8   1142.548300 -26076.454912  -2690.086335      0.736688                    
V  8   2180.037017   3488.752300 -32704.664792      0.001157                    
P  9 -14075.644870   3488.577639  21705.292166    142.713640                    
V  9  -3887.808355 -28565.594592   1991.691470      0.024934                    
P 10   -439.856265 -17507.269810 -20107.288621    -31.176470                    
V 10  21250.575642 -13518.861756  11842.262965     -0.013732                    
P 11  17059.675077  -1179.893726  19993.382712   -238.596255                    
V 11   9169.913259  24893.092840  -5913.799153     -0.036315                    
P 12 -23194.848844   9606.198015   8374.294447     56.084935                    
V 12   7382.692893  -8008.501576  29837.023908      0.021364                    
P 13  11144.131934 -10425.367544 -21893.232846    221.295127                    
V 13  23925.514811  13290.646513   5806.379874     -0.021875                    
P 14   8733.435139  17868.100060  17844.677190    196.047132                    
V 14 -20347.855196  -8994.305987  19018.744009      0.012528                    
P 15 -24345.779875  -1492.809507  10758.808375    -92.306591                    
V 15 -11623.577673  -7599.674930 -27129.242827      0.003810                    
P 16  16562.539035   5099.142743 -20202.513324   -226.106411                    
V 16 -20647.096031  15059.797377 -12812.187680     -0.015559                    
P 17  -6011.111724 -17614.473038  19207.050467    144.719363                    
V 17  22155.639274   9157.978918  15234.523875     -0.023647                    
P 18 -14486.837095  19820.963541  10004.054889    184.663536                    
V 18 -12101.239196   4442.531078 -27636.351877      0.018136                    
P 19  24491.657331   6231.442984   8743.457731   -242.359391                    
V 19   8627.737838   7268.309676 -28851.394968     -0.038028                    
P 20  22304.818287 -13385.954853   5016.398032     63.197039                    
V 20  -2750.364386   7088.067659  30233.082775      0.006857                    
P 21  -4670.692063  23726.680935  -9809.873422   -208.586418                    
V 21  -5351.341330 -12862.084260 -27863.370669     -0.024891                    
P 22   -726.356376  18382.454668  19293.026629    143.037100                    
V 22 -20646.245043  12902.925196 -13307.898587     -0.000526                    
P 23  20447.555633  -3677.919307 -16725.118216    227.137770                    
V 23  18667.973534  10061.054689  20219.269029     -0.034556                    
P 24   2980.808108  15810.535156 -21227.215110   -254.874833                    
V 24 -21843.451276  15304.598888   8542.263905      0.004815                    
P 25 -19233.863980  17902.506833  -3705.820778     32.031628                    
V 25  -5309.116698    757.714905  31469.334900      0.002412                    
P 26 -23004.068042 -13639.978195  -1815.138668   -107.616985                    
V 26   2154.539167   -799.713402 -31907.400602     -0.587602                    
P 27 -15472.909413  -5288.792116  21653.826349    363.488097                    
V 27  -3775.554338 -25599.033148  -8770.846453      0.040244                    
P 28   4288.070920 -18432.311630  19096.058352    119.307349                    
V 28  19818.394523 -11988.793407 -16725.749892      0.039599                    
P 29 -13092.168420   9789.638825 -20856.222600    290.758423                    
V 29 -23648.182467 -12297.062037   9083.578740      0.035630                    
P 30   8685.469871  12892.168047 -21889.073204    -70.045570                    
V 30 -20029.797782  18056.116209   2739.943065     -0.160144                    
P 31   7245.030821  24358.635515  -7075.075366    215.820202                    
V 31  -1339.150679   9476.524161  30636.533562      0.044804                    
P 32  23177.716276  -4307.378698  11977.797928   -416.173078                    
V 32 -11299.809661  10364.981852  26535.103892     -0.050547                    
EOF
